ONEWEB-0058             
1 45161U 20008AG  25230.91133606  .00000301  00000+0  82676-3 0  9993
2 45161  87.8772  96.5764 0001762  75.5053 284.6269 13.10376228268833
ONEWEB-0059             
1 45162U 20008AH  25230.67880017  .00000188  00000+0  50144-3 0  9990
2 45162  87.8777  96.6226 0001719  75.6997 284.4321 13.10376801268703
ONEWEB-0062             
1 45163U 20008AJ  25230.85725481  .00000470  00000+0  13095-2 0  9991
2 45163  87.8766  96.5654 0001388  76.8111 283.3172 13.10370048268595
ONEWEB-0065             
1 45164U 20008AK  25230.91367988  .00000443  00000+0  12318-2 0  9990
2 45164  87.8773  96.5795 0001867  91.1461 268.9880 13.10374448268290
ONEWEB-0066             
1 45424U 20020A   25230.85887223 -.00000199  00000+0 -59750-3 0  9997
2 45424  87.8789  81.3095 0002004  81.2602 278.8753 13.11416494263059
ONEWEB-0067             
1 45425U 20020B   25230.82001036  .00000248  00000+0  66522-3 0  9993
2 45425  87.8775  81.2261 0001925  83.3123 276.8224 13.11416605263102
ONEWEB-0080             
1 45426U 20020C   25230.82921951 -.00000151  00000+0 -46221-3 0  9990
2 45426  87.8788  81.3161 0001716  71.9964 288.1350 13.11414815263074
ONEWEB-0090             
1 45427U 20020D   25230.84871209 -.00000462  00000+0 -13385-2 0  9992
2 45427  87.8787  81.3137 0001681  83.1425 276.9894 13.11417142263046
ONEWEB-0061             
1 45428U 20020E   25231.10967863  .00000549  00000+0  15134-2 0  9993
2 45428  87.8785  81.2427 0001762  81.6493 278.4834 13.11418521263036
ONEWEB-0081             
1 45429U 20020F   25230.86227757 -.00000010  00000+0 -65052-4 0  9998
2 45429  87.8786  81.3118 0001953  81.8836 278.2514 13.11420189263116
ONEWEB-0069             
1 45430U 20020G   25230.85125394 -.00000485  00000+0 -14043-2 0  9991
2 45430  87.8792  81.3076 0001845  84.9077 275.2261 13.11417424263045
ONEWEB-0031             
1 45431U 20020H   25230.82328076  .00000105  00000+0  26148-3 0  9998
2 45431  87.8785  81.3425 0001505  80.3064 279.8234 13.11413776263029
ONEWEB-0027             
1 45432U 20020J   25230.92804048  .00000066  00000+0  13783-3 0  9995
2 45432  87.9032  65.9827 0001370  92.4478 267.6811 13.17648409266559
ONEWEB-0064             
1 45433U 20020K   25230.82158549  .00000209  00000+0  55477-3 0  9998
2 45433  87.8782  81.3342 0001548  84.0586 276.0718 13.11413960263057
ONEWEB-0018             
1 45434U 20020L   25230.85379725 -.00000334  00000+0 -97839-3 0  9992
2 45434  87.8783  81.3120 0001746  82.0766 278.0560 13.11418335263004
ONEWEB-0083             
1 45435U 20020M   25230.84361311 -.00000527  00000+0 -15237-2 0  9999
2 45435  87.8790  81.3012 0001687  84.7547 275.3773 13.11414997263043
ONEWEB-0095             
1 45436U 20020N   25230.83530611 -.00000435  00000+0 -12623-2 0  9994
2 45436  87.8778  81.3249 0001580 111.8882 248.2414 13.11404727263049
