[{"OBJECT_NAME":"ONEWEB-0058","OBJECT_ID":"2020-008AG","EPOCH":"2025-08-18T21:52:19.435584","MEAN_MOTION":13.10376228,"ECCENTRICITY":0.0001762,"INCLINATION":87.8772,"RA_OF_ASC_NODE":96.5764,"ARG_OF_PERICENTER":75.5053,"MEAN_ANOMALY":284.6269,"EPHEMERIS_TYPE":0,"CLASSIFICATION_TYPE":"U","NORAD_CAT_ID":45161,"ELEMENT_SET_NO":999,"REV_AT_EPOCH":26883,"BSTAR":0.00082676,"MEAN_MOTION_DOT":3.01e-6,"MEAN_MOTION_DDOT":0},{"OBJECT_NAME":"ONEWEB-0059","OBJECT_ID":"2020-008AH","EPOCH":"2025-08-18T16:17:28.334688","MEAN_MOTION":13.10376801,"ECCENTRICITY":0.0001719,"INCLINATION":87.8777,"RA_OF_ASC_NODE":96.6226,"ARG_OF_PERICENTER":75.6997,"MEAN_ANOMALY":284.4321,"EPHEMERIS_TYPE":0,"CLASSIFICATION_TYPE":"U","NORAD_CAT_ID":45162,"ELEMENT_SET_NO":999,"REV_AT_EPOCH":26870,"BSTAR":0.00050144,"MEAN_MOTION_DOT":1.88e-6,"MEAN_MOTION_DDOT":0},{"OBJECT_NAME":"ONEWEB-0062","OBJECT_ID":"2020-008AJ","EPOCH":"2025-08-18T20:34:26.815584","MEAN_MOTION":13.10370048,"ECCENTRICITY":0.0001388,"INCLINATION":87.8766,"RA_OF_ASC_NODE":96.5654,"ARG_OF_PERICENTER":76.8111,"MEAN_ANOMALY":283.3172,"EPHEMERIS_TYPE":0,"CLASSIFICATION_TYPE":"U","NORAD_CAT_ID":45163,"ELEMENT_SET_NO":999,"REV_AT_EPOCH":26859,"BSTAR":0.0013095,"MEAN_MOTION_DOT":4.7e-6,"MEAN_MOTION_DDOT":0},{"OBJECT_NAME":"ONEWEB-0065","OBJECT_ID":"2020-008AK","EPOCH":"2025-08-18T21:55:41.941632","MEAN_MOTION":13.10374448,"ECCENTRICITY":0.0001867,"INCLINATION":87.8773,"RA_OF_ASC_NODE":96.5795,"ARG_OF_PERICENTER":91.1461,"MEAN_ANOMALY":268.988,"EPHEMERIS_TYPE":0,"CLASSIFICATION_TYPE":"U","NORAD_CAT_ID":45164,"ELEMENT_SET_NO":999,"REV_AT_EPOCH":26829,"BSTAR":0.0012318,"MEAN_MOTION_DOT":4.43e-6,"MEAN_MOTION_DDOT":0},{"OBJECT_NAME":"ONEWEB-0066","OBJECT_ID":"2020-020A","EPOCH":"2025-08-18T20:36:46.560672","MEAN_MOTION":13.11416494,"ECCENTRICITY":0.0002004,"INCLINATION":87.8789,"RA_OF_ASC_NODE":81.3095,"ARG_OF_PERICENTER":81.2602,"MEAN_ANOMALY":278.8753,"EPHEMERIS_TYPE":0,"CLASSIFICATION_TYPE":"U","NORAD_CAT_ID":45424,"ELEMENT_SET_NO":999,"REV_AT_EPOCH":26305,"BSTAR":-0.0005975,"MEAN_MOTION_DOT":-1.99e-6,"MEAN_MOTION_DDOT":0},{"OBJECT_NAME":"ONEWEB-0067","OBJECT_ID":"2020-020B","EPOCH":"2025-08-18T19:40:48.895104","MEAN_MOTION":13.11416605,"ECCENTRICITY":0.0001925,"INCLINATION":87.8775,"RA_OF_ASC_NODE":81.2261,"ARG_OF_PERICENTER":83.3123,"MEAN_ANOMALY":276.8224,"EPHEMERIS_TYPE":0,"CLASSIFICATION_TYPE":"U","NORAD_CAT_ID":45425,"ELEMENT_SET_NO":999,"REV_AT_EPOCH":26310,"BSTAR":0.00066522,"MEAN_MOTION_DOT":2.48e-6,"MEAN_MOTION_DDOT":0},{"OBJECT_NAME":"ONEWEB-0080","OBJECT_ID":"2020-020C","EPOCH":"2025-08-18T19:54:04.565664","MEAN_MOTION":13.11414815,"ECCENTRICITY":0.0001716,"INCLINATION":87.8788,"RA_OF_ASC_NODE":81.3161,"ARG_OF_PERICENTER":71.9964,"MEAN_ANOMALY":288.135,"EPHEMERIS_TYPE":0,"CLASSIFICATION_TYPE":"U","NORAD_CAT_ID":45426,"ELEMENT_SET_NO":999,"REV_AT_EPOCH":26307,"BSTAR":-0.00046221,"MEAN_MOTION_DOT":-1.51e-6,"MEAN_MOTION_DDOT":0},{"OBJECT_NAME":"ONEWEB-0090","OBJECT_ID":"2020-020D","EPOCH":"2025-08-18T20:22:08.724576","MEAN_MOTION":13.11417142,"ECCENTRICITY":0.0001681,"INCLINATION":87.8787,"RA_OF_ASC_NODE":81.3137,"ARG_OF_PERICENTER":83.1425,"MEAN_ANOMALY":276.9894,"EPHEMERIS_TYPE":0,"CLASSIFICATION_TYPE":"U","NORAD_CAT_ID":45427,"ELEMENT_SET_NO":999,"REV_AT_EPOCH":26304,"BSTAR":-0.0013385,"MEAN_MOTION_DOT":-4.62e-6,"MEAN_MOTION_DDOT":0},{"OBJECT_NAME":"ONEWEB-0061","OBJECT_ID":"2020-020E","EPOCH":"2025-08-19T02:37:56.233632","MEAN_MOTION":13.11418521,"ECCENTRICITY":0.0001762,"INCLINATION":87.8785,"RA_OF_ASC_NODE":81.2427,"ARG_OF_PERICENTER":81.6493,"MEAN_ANOMALY":278.4834,"EPHEMERIS_TYPE":0,"CLASSIFICATION_TYPE":"U","NORAD_CAT_ID":45428,"ELEMENT_SET_NO":999,"REV_AT_EPOCH":26303,"BSTAR":0.0015134,"MEAN_MOTION_DOT":5.49e-6,"MEAN_MOTION_DDOT":0},{"OBJECT_NAME":"ONEWEB-0081","OBJECT_ID":"2020-020F","EPOCH":"2025-08-18T20:41:40.782048","MEAN_MOTION":13.11420189,"ECCENTRICITY":0.0001953,"INCLINATION":87.8786,"RA_OF_ASC_NODE":81.3118,"ARG_OF_PERICENTER":81.8836,"MEAN_ANOMALY":278.2514,"EPHEMERIS_TYPE":0,"CLASSIFICATION_TYPE":"U","NORAD_CAT_ID":45429,"ELEMENT_SET_NO":999,"REV_AT_EPOCH":26311,"BSTAR":-6.5052e-5,"MEAN_MOTION_DOT":-1.0e-7,"MEAN_MOTION_DDOT":0},{"OBJECT_NAME":"ONEWEB-0069","OBJECT_ID":"2020-020G","EPOCH":"2025-08-18T20:25:48.340416","MEAN_MOTION":13.11417424,"ECCENTRICITY":0.0001845,"INCLINATION":87.8792,"RA_OF_ASC_NODE":81.3076,"ARG_OF_PERICENTER":84.9077,"MEAN_ANOMALY":275.2261,"EPHEMERIS_TYPE":0,"CLASSIFICATION_TYPE":"U","NORAD_CAT_ID":45430,"ELEMENT_SET_NO":999,"REV_AT_EPOCH":26304,"BSTAR":-0.0014043,"MEAN_MOTION_DOT":-4.85e-6,"MEAN_MOTION_DDOT":0},{"OBJECT_NAME":"ONEWEB-0031","OBJECT_ID":"2020-020H","EPOCH":"2025-08-18T19:45:31.457664","MEAN_MOTION":13.11413776,"ECCENTRICITY":0.0001505,"INCLINATION":87.8785,"RA_OF_ASC_NODE":81.3425,"ARG_OF_PERICENTER":80.3064,"MEAN_ANOMALY":279.8234,"EPHEMERIS_TYPE":0,"CLASSIFICATION_TYPE":"U","NORAD_CAT_ID":45431,"ELEMENT_SET_NO":999,"REV_AT_EPOCH":26302,"BSTAR":0.00026148,"MEAN_MOTION_DOT":1.05e-6,"MEAN_MOTION_DDOT":0},{"OBJECT_NAME":"ONEWEB-0027","OBJECT_ID":"2020-020J","EPOCH":"2025-08-18T22:16:22.697472","MEAN_MOTION":13.17648409,"ECCENTRICITY":0.000137,"INCLINATION":87.9032,"RA_OF_ASC_NODE":65.9827,"ARG_OF_PERICENTER":92.4478,"MEAN_ANOMALY":267.6811,"EPHEMERIS_TYPE":0,"CLASSIFICATION_TYPE":"U","NORAD_CAT_ID":45432,"ELEMENT_SET_NO":999,"REV_AT_EPOCH":26655,"BSTAR":0.00013783,"MEAN_MOTION_DOT":6.6e-7,"MEAN_MOTION_DDOT":0},{"OBJECT_NAME":"ONEWEB-0064","OBJECT_ID":"2020-020K","EPOCH":"2025-08-18T19:43:04.986336","MEAN_MOTION":13.1141396,"ECCENTRICITY":0.0001548,"INCLINATION":87.8782,"RA_OF_ASC_NODE":81.3342,"ARG_OF_PERICENTER":84.0586,"MEAN_ANOMALY":276.0718,"EPHEMERIS_TYPE":0,"CLASSIFICATION_TYPE":"U","NORAD_CAT_ID":45433,"ELEMENT_SET_NO":999,"REV_AT_EPOCH":26305,"BSTAR":0.00055477,"MEAN_MOTION_DOT":2.09e-6,"MEAN_MOTION_DDOT":0},{"OBJECT_NAME":"ONEWEB-0018","OBJECT_ID":"2020-020L","EPOCH":"2025-08-18T20:29:28.082400","MEAN_MOTION":13.11418335,"ECCENTRICITY":0.0001746,"INCLINATION":87.8783,"RA_OF_ASC_NODE":81.312,"ARG_OF_PERICENTER":82.0766,"MEAN_ANOMALY":278.056,"EPHEMERIS_TYPE":0,"CLASSIFICATION_TYPE":"U","NORAD_CAT_ID":45434,"ELEMENT_SET_NO":999,"REV_AT_EPOCH":26300,"BSTAR":-0.00097839,"MEAN_MOTION_DOT":-3.34e-6,"MEAN_MOTION_DDOT":0},{"OBJECT_NAME":"ONEWEB-0083","OBJECT_ID":"2020-020M","EPOCH":"2025-08-18T20:14:48.172704","MEAN_MOTION":13.11414997,"ECCENTRICITY":0.0001687,"INCLINATION":87.879,"RA_OF_ASC_NODE":81.3012,"ARG_OF_PERICENTER":84.7547,"MEAN_ANOMALY":275.3773,"EPHEMERIS_TYPE":0,"CLASSIFICATION_TYPE":"U","NORAD_CAT_ID":45435,"ELEMENT_SET_NO":999,"REV_AT_EPOCH":26304,"BSTAR":-0.0015237,"MEAN_MOTION_DOT":-5.27e-6,"MEAN_MOTION_DDOT":0},{"OBJECT_NAME":"ONEWEB-0095","OBJECT_ID":"2020-020N","EPOCH":"2025-08-18T20:02:50.447904","MEAN_MOTION":13.11404727,"ECCENTRICITY":0.000158,"INCLINATION":87.8778,"RA_OF_ASC_NODE":81.3249,"ARG_OF_PERICENTER":111.8882,"MEAN_ANOMALY":248.2414,"EPHEMERIS_TYPE":0,"CLASSIFICATION_TYPE":"U","NORAD_CAT_ID":45436,"ELEMENT_SET_NO":999,"REV_AT_EPOCH":26304,"BSTAR":-0.0012623,"MEAN_MOTION_DOT":-4.35e-6,"MEAN_MOTION_DDOT":0}]
